STARLINK-36803          
1 67893U 26035Q   26076.80832161  .00228666  00000+0  11582-2 0  9997
2 67893  97.2894   9.6311 0001700 114.7672 245.3773 15.80916293  5123
STARLINK-36846          
1 67894U 26035R   26076.91670139 -.00159337  00000+0 -10836-2 0  9996
2 67894  97.2877   9.7190 0001692 101.8346  83.4277 15.75268647  5088
STARLINK-36866          
1 67895U 26035S   26076.91670139 -.00168602  00000+0 -11484-2 0  9992
2 67895  97.2869   9.7372 0001505 107.6035 121.6620 15.75259514  5084
STARLINK-36877          
1 67896U 26035T   26076.80756275  .00293016  00000+0  14713-2 0  9991
2 67896  97.2881   9.6346 0003356 170.3343 189.7991 15.80937485  5121
STARLINK-36870          
1 67897U 26035U   26076.80530888  .00206273  00000+0  10486-2 0  9994
2 67897  97.2875   9.6333 0000226 238.5458 121.5789 15.80894555  5127
STARLINK-36810          
1 67898U 26035V   26076.93138828 -.00453415  00000+0 -26204-2 0  9996
2 67898  97.2890   9.7678 0002566 334.7038  25.4104 15.79701226  5145
STARLINK-36878          
1 67899U 26035W   26076.73976089  .00260101  00000+0  13125-2 0  9998
2 67899  97.2902   9.5687 0001383 107.4701 252.6719 15.80916364  5112
STARLINK-36361          
1 67900U 26035X   26076.86561432  .00258324  00000+0  13041-2 0  9998
2 67900  97.2904   9.7048 0001018  83.4757 276.6627 15.80911944  5134
STARLINK-36336          
1 67901U 26035Y   26076.73675335  .00409081  00000+0  20216-2 0  9993
2 67901  97.2905   9.5751 0001315 102.4621 257.6795 15.80991520  5118
STARLINK-36876          
1 67902U 26035Z   26076.80156056  .00241022  00000+0  12194-2 0  9991
2 67902  97.2898   9.6414 0001357 132.9529 227.1854 15.80909993  5120
STARLINK-36257          
1 67903U 26035AA  26076.91670139 -.00150674  00000+0 -10243-2 0  9994
2 67903  97.2877   9.7342 0001546 112.5905 108.6790 15.75255146  5132
STARLINK-36814          
1 67904U 26036A   26076.91670139  .00045898  00000+0  78480-3 0  9993
2 67904  43.0004 201.0785 0001468 275.1345 109.9730 15.50535777  4961
