CCSDS_OMM_VERS = 2.0
CREATION_DATE  = 
ORIGINATOR     = 

OBJECT_NAME    = STARLINK-36803
OBJECT_ID      = 2026-035Q
CENTER_NAME    = EARTH
REF_FRAME      = TEME
TIME_SYSTEM    = UTC
MEAN_ELEMENT_THEORY = SGP/SGP4

EPOCH          = 2026-03-17T19:23:58.987104
MEAN_MOTION    = 15.80916293
ECCENTRICITY   = .00017003
INCLINATION    = 97.2894
RA_OF_ASC_NODE = 9.6311
ARG_OF_PERICENTER = 114.7672
MEAN_ANOMALY   = 245.3773

EPHEMERIS_TYPE = 0
CLASSIFICATION_TYPE = U
NORAD_CAT_ID   = 67893
ELEMENT_SET_NO = 999
REV_AT_EPOCH   = 512
BSTAR          = .11581899E-2
MEAN_MOTION_DOT = .228666E-2
MEAN_MOTION_DDOT = 0

CCSDS_OMM_VERS = 2.0
CREATION_DATE  = 
ORIGINATOR     = 

OBJECT_NAME    = STARLINK-36846
OBJECT_ID      = 2026-035R
CENTER_NAME    = EARTH
REF_FRAME      = TEME
TIME_SYSTEM    = UTC
MEAN_ELEMENT_THEORY = SGP/SGP4

EPOCH          = 2026-03-17T22:00:03.000096
MEAN_MOTION    = 15.75268647
ECCENTRICITY   = .00016923
INCLINATION    = 97.2877
RA_OF_ASC_NODE = 9.7190
ARG_OF_PERICENTER = 101.8346
MEAN_ANOMALY   = 83.4277

EPHEMERIS_TYPE = 0
CLASSIFICATION_TYPE = U
NORAD_CAT_ID   = 67894
ELEMENT_SET_NO = 999
REV_AT_EPOCH   = 508
BSTAR          = -.10836314E-2
MEAN_MOTION_DOT = -.159337E-2
MEAN_MOTION_DDOT = 0

CCSDS_OMM_VERS = 2.0
CREATION_DATE  = 
ORIGINATOR     = 

OBJECT_NAME    = STARLINK-36866
OBJECT_ID      = 2026-035S
CENTER_NAME    = EARTH
REF_FRAME      = TEME
TIME_SYSTEM    = UTC
MEAN_ELEMENT_THEORY = SGP/SGP4

EPOCH          = 2026-03-17T22:00:03.000096
MEAN_MOTION    = 15.75259514
ECCENTRICITY   = .00015053
INCLINATION    = 97.2869
RA_OF_ASC_NODE = 9.7372
ARG_OF_PERICENTER = 107.6035
MEAN_ANOMALY   = 121.6620

EPHEMERIS_TYPE = 0
CLASSIFICATION_TYPE = U
NORAD_CAT_ID   = 67895
ELEMENT_SET_NO = 999
REV_AT_EPOCH   = 508
BSTAR          = -.11484169E-2
MEAN_MOTION_DOT = -.168602E-2
MEAN_MOTION_DDOT = 0

CCSDS_OMM_VERS = 2.0
CREATION_DATE  = 
ORIGINATOR     = 

OBJECT_NAME    = STARLINK-36877
OBJECT_ID      = 2026-035T
CENTER_NAME    = EARTH
REF_FRAME      = TEME
TIME_SYSTEM    = UTC
MEAN_ELEMENT_THEORY = SGP/SGP4

EPOCH          = 2026-03-17T19:22:53.421600
MEAN_MOTION    = 15.80937485
ECCENTRICITY   = .00033568
INCLINATION    = 97.2881
RA_OF_ASC_NODE = 9.6346
ARG_OF_PERICENTER = 170.3343
MEAN_ANOMALY   = 189.7991

EPHEMERIS_TYPE = 0
CLASSIFICATION_TYPE = U
NORAD_CAT_ID   = 67896
ELEMENT_SET_NO = 999
REV_AT_EPOCH   = 512
BSTAR          = .14713241E-2
MEAN_MOTION_DOT = .293016E-2
MEAN_MOTION_DDOT = 0

CCSDS_OMM_VERS = 2.0
CREATION_DATE  = 
ORIGINATOR     = 

OBJECT_NAME    = STARLINK-36870
OBJECT_ID      = 2026-035U
CENTER_NAME    = EARTH
REF_FRAME      = TEME
TIME_SYSTEM    = UTC
MEAN_ELEMENT_THEORY = SGP/SGP4

EPOCH          = 2026-03-17T19:19:38.687232
MEAN_MOTION    = 15.80894555
ECCENTRICITY   = .00002263
INCLINATION    = 97.2875
RA_OF_ASC_NODE = 9.6333
ARG_OF_PERICENTER = 238.5458
MEAN_ANOMALY   = 121.5789

EPHEMERIS_TYPE = 0
CLASSIFICATION_TYPE = U
NORAD_CAT_ID   = 67897
ELEMENT_SET_NO = 999
REV_AT_EPOCH   = 512
BSTAR          = .10485702E-2
MEAN_MOTION_DOT = .206273E-2
MEAN_MOTION_DDOT = 0

CCSDS_OMM_VERS = 2.0
CREATION_DATE  = 
ORIGINATOR     = 

OBJECT_NAME    = STARLINK-36810
OBJECT_ID      = 2026-035V
CENTER_NAME    = EARTH
REF_FRAME      = TEME
TIME_SYSTEM    = UTC
MEAN_ELEMENT_THEORY = SGP/SGP4

EPOCH          = 2026-03-17T22:21:11.947392
MEAN_MOTION    = 15.79701226
ECCENTRICITY   = .00025667
INCLINATION    = 97.2890
RA_OF_ASC_NODE = 9.7678
ARG_OF_PERICENTER = 334.7038
MEAN_ANOMALY   = 25.4104

EPHEMERIS_TYPE = 0
CLASSIFICATION_TYPE = U
NORAD_CAT_ID   = 67898
ELEMENT_SET_NO = 999
REV_AT_EPOCH   = 514
BSTAR          = -.26203889E-2
MEAN_MOTION_DOT = -.453415E-2
MEAN_MOTION_DDOT = 0

CCSDS_OMM_VERS = 2.0
CREATION_DATE  = 
ORIGINATOR     = 

OBJECT_NAME    = STARLINK-36878
OBJECT_ID      = 2026-035W
CENTER_NAME    = EARTH
REF_FRAME      = TEME
TIME_SYSTEM    = UTC
MEAN_ELEMENT_THEORY = SGP/SGP4

EPOCH          = 2026-03-17T17:45:15.340896
MEAN_MOTION    = 15.80916364
ECCENTRICITY   = .0001383
INCLINATION    = 97.2902
RA_OF_ASC_NODE = 9.5687
ARG_OF_PERICENTER = 107.4701
MEAN_ANOMALY   = 252.6719

EPHEMERIS_TYPE = 0
CLASSIFICATION_TYPE = U
NORAD_CAT_ID   = 67899
ELEMENT_SET_NO = 999
REV_AT_EPOCH   = 511
BSTAR          = .1312535E-2
MEAN_MOTION_DOT = .260101E-2
MEAN_MOTION_DDOT = 0

CCSDS_OMM_VERS = 2.0
CREATION_DATE  = 
ORIGINATOR     = 

OBJECT_NAME    = STARLINK-36361
OBJECT_ID      = 2026-035X
CENTER_NAME    = EARTH
REF_FRAME      = TEME
TIME_SYSTEM    = UTC
MEAN_ELEMENT_THEORY = SGP/SGP4

EPOCH          = 2026-03-17T20:46:29.077248
MEAN_MOTION    = 15.80911944
ECCENTRICITY   = .00010189
INCLINATION    = 97.2904
RA_OF_ASC_NODE = 9.7048
ARG_OF_PERICENTER = 83.4757
MEAN_ANOMALY   = 276.6627

EPHEMERIS_TYPE = 0
CLASSIFICATION_TYPE = U
NORAD_CAT_ID   = 67900
ELEMENT_SET_NO = 999
REV_AT_EPOCH   = 513
BSTAR          = .13040954E-2
MEAN_MOTION_DOT = .258324E-2
MEAN_MOTION_DDOT = 0

CCSDS_OMM_VERS = 2.0
CREATION_DATE  = 
ORIGINATOR     = 

OBJECT_NAME    = STARLINK-36336
OBJECT_ID      = 2026-035Y
CENTER_NAME    = EARTH
REF_FRAME      = TEME
TIME_SYSTEM    = UTC
MEAN_ELEMENT_THEORY = SGP/SGP4

EPOCH          = 2026-03-17T17:40:55.489440
MEAN_MOTION    = 15.80991520
ECCENTRICITY   = .0001315
INCLINATION    = 97.2905
RA_OF_ASC_NODE = 9.5751
ARG_OF_PERICENTER = 102.4621
MEAN_ANOMALY   = 257.6795

EPHEMERIS_TYPE = 0
CLASSIFICATION_TYPE = U
NORAD_CAT_ID   = 67901
ELEMENT_SET_NO = 999
REV_AT_EPOCH   = 511
BSTAR          = .20215917E-2
MEAN_MOTION_DOT = .409081E-2
MEAN_MOTION_DDOT = 0

CCSDS_OMM_VERS = 2.0
CREATION_DATE  = 
ORIGINATOR     = 

OBJECT_NAME    = STARLINK-36876
OBJECT_ID      = 2026-035Z
CENTER_NAME    = EARTH
REF_FRAME      = TEME
TIME_SYSTEM    = UTC
MEAN_ELEMENT_THEORY = SGP/SGP4

EPOCH          = 2026-03-17T19:14:14.832384
MEAN_MOTION    = 15.80909993
ECCENTRICITY   = .00013576
INCLINATION    = 97.2898
RA_OF_ASC_NODE = 9.6414
ARG_OF_PERICENTER = 132.9529
MEAN_ANOMALY   = 227.1854

EPHEMERIS_TYPE = 0
CLASSIFICATION_TYPE = U
NORAD_CAT_ID   = 67902
ELEMENT_SET_NO = 999
REV_AT_EPOCH   = 512
BSTAR          = .12193532E-2
MEAN_MOTION_DOT = .241022E-2
MEAN_MOTION_DDOT = 0

CCSDS_OMM_VERS = 2.0
CREATION_DATE  = 
ORIGINATOR     = 

OBJECT_NAME    = STARLINK-36257
OBJECT_ID      = 2026-035AA
CENTER_NAME    = EARTH
REF_FRAME      = TEME
TIME_SYSTEM    = UTC
MEAN_ELEMENT_THEORY = SGP/SGP4

EPOCH          = 2026-03-17T22:00:03.000096
MEAN_MOTION    = 15.75255146
ECCENTRICITY   = .00015463
INCLINATION    = 97.2877
RA_OF_ASC_NODE = 9.7342
ARG_OF_PERICENTER = 112.5905
MEAN_ANOMALY   = 108.6790

EPHEMERIS_TYPE = 0
CLASSIFICATION_TYPE = U
NORAD_CAT_ID   = 67903
ELEMENT_SET_NO = 999
REV_AT_EPOCH   = 513
BSTAR          = -.1024263E-2
MEAN_MOTION_DOT = -.150674E-2
MEAN_MOTION_DDOT = 0

CCSDS_OMM_VERS = 2.0
CREATION_DATE  = 
ORIGINATOR     = 

OBJECT_NAME    = STARLINK-36814
OBJECT_ID      = 2026-036A
CENTER_NAME    = EARTH
REF_FRAME      = TEME
TIME_SYSTEM    = UTC
MEAN_ELEMENT_THEORY = SGP/SGP4

EPOCH          = 2026-03-17T22:00:03.000096
MEAN_MOTION    = 15.50535777
ECCENTRICITY   = .00014685
INCLINATION    = 43.0004
RA_OF_ASC_NODE = 201.0785
ARG_OF_PERICENTER = 275.1345
MEAN_ANOMALY   = 109.9730

EPHEMERIS_TYPE = 0
CLASSIFICATION_TYPE = U
NORAD_CAT_ID   = 67904
ELEMENT_SET_NO = 999
REV_AT_EPOCH   = 496
BSTAR          = .78480254E-3
MEAN_MOTION_DOT = .45898E-3
MEAN_MOTION_DDOT = 0

